[{"OBJECT_NAME":"STARLINK-31495","OBJECT_ID":"2024-056T","EPOCH":"2026-03-09T11:04:09.923808","MEAN_MOTION":15.27571993,"ECCENTRICITY":0.00012844,"INCLINATION":43.0007,"RA_OF_ASC_NODE":224.6995,"ARG_OF_PERICENTER":269.6644,"MEAN_ANOMALY":90.406,"EPHEMERIS_TYPE":0,"CLASSIFICATION_TYPE":"U","NORAD_CAT_ID":59313,"ELEMENT_SET_NO":999,"REV_AT_EPOCH":11120,"BSTAR":-4.4413387e-5,"MEAN_MOTION_DOT":-1.484e-5,"MEAN_MOTION_DDOT":0},{"OBJECT_NAME":"YAM-7","OBJECT_ID":"2024-149AN","EPOCH":"2026-03-09T17:13:55.117920","MEAN_MOTION":15.30304554,"ECCENTRICITY":0.00019733,"INCLINATION":97.3828,"RA_OF_ASC_NODE":149.4631,"ARG_OF_PERICENTER":296.5121,"MEAN_ANOMALY":63.5918,"EPHEMERIS_TYPE":0,"CLASSIFICATION_TYPE":"U","NORAD_CAT_ID":60504,"ELEMENT_SET_NO":999,"REV_AT_EPOCH":8683,"BSTAR":0.00030984439,"MEAN_MOTION_DOT":9.009e-5,"MEAN_MOTION_DDOT":0}]
